{
  "type": "FeatureCollection",
  "name": "WHUInfo_POIs",
  "crs": {
    "type": "name",
    "properties": {
      "name": "urn:ogc:def:crs:OGC:1.3:CRS84"
    }
  },
  "features": [
    { "type": "Feature", "geometry": { "type": "Point", "coordinates": [114.3544893, 30.5310371] }, "properties": { "name": "信息学部4舍", "category": "宿舍", "capacity": 300 } },
    { "type": "Feature", "geometry": { "type": "Point", "coordinates": [114.3544902, 30.5307207] }, "properties": { "name": "信息学部3舍", "category": "宿舍", "capacity": 300 } },
    { "type": "Feature", "geometry": { "type": "Point", "coordinates": [114.354645, 30.5302595] }, "properties": { "name": "信息学部2舍", "category": "宿舍", "capacity": 280 } },
    { "type": "Feature", "geometry": { "type": "Point", "coordinates": [114.3544609, 30.5313599] }, "properties": { "name": "信息学部5舍", "category": "宿舍", "capacity": 300 } },
    { "type": "Feature", "geometry": { "type": "Point", "coordinates": [114.353564, 30.5302117] }, "properties": { "name": "信息学部6舍", "category": "宿舍", "capacity": 280 } },
    { "type": "Feature", "geometry": { "type": "Point", "coordinates": [114.3535304, 30.5288246] }, "properties": { "name": "信息学部7舍", "category": "宿舍", "capacity": 260 } },
    { "type": "Feature", "geometry": { "type": "Point", "coordinates": [114.3534409, 30.5285342] }, "properties": { "name": "信息学部8舍", "category": "宿舍", "capacity": 260 } },
    { "type": "Feature", "geometry": { "type": "Point", "coordinates": [114.3523804, 30.5285107] }, "properties": { "name": "信息学部9舍", "category": "宿舍", "capacity": 280 } },
    { "type": "Feature", "geometry": { "type": "Point", "coordinates": [114.3524566, 30.528781] }, "properties": { "name": "信息学部10舍", "category": "宿舍", "capacity": 280 } },
    { "type": "Feature", "geometry": { "type": "Point", "coordinates": [114.3526168, 30.5301488] }, "properties": { "name": "信息学部11舍", "category": "宿舍", "capacity": 300 } },
    { "type": "Feature", "geometry": { "type": "Point", "coordinates": [114.3526177, 30.5304221] }, "properties": { "name": "信息学部12舍", "category": "宿舍", "capacity": 300 } },
    { "type": "Feature", "geometry": { "type": "Point", "coordinates": [114.3526186, 30.5307052] }, "properties": { "name": "信息学部13舍", "category": "宿舍", "capacity": 300 } },
    { "type": "Feature", "geometry": { "type": "Point", "coordinates": [114.3526219, 30.5310054] }, "properties": { "name": "信息学部14舍", "category": "宿舍", "capacity": 300 } },
    { "type": "Feature", "geometry": { "type": "Point", "coordinates": [114.3519195, 30.5308764] }, "properties": { "name": "信息学部15、16舍", "category": "宿舍", "capacity": 600 } },
    { "type": "Feature", "geometry": { "type": "Point", "coordinates": [114.3536131, 30.5311023] }, "properties": { "name": "信息学部17舍", "category": "宿舍", "capacity": 350 } },
    { "type": "Feature", "geometry": { "type": "Point", "coordinates": [114.3544824, 30.5317452] }, "properties": { "name": "信息学部18舍", "category": "宿舍", "capacity": 350 } },
    { "type": "Feature", "geometry": { "type": "Point", "coordinates": [114.3495189, 30.5294059] }, "properties": { "name": "信息学部19舍", "category": "宿舍", "capacity": 250 } },
    { "type": "Feature", "geometry": { "type": "Point", "coordinates": [114.3495121, 30.5297014] }, "properties": { "name": "信息学部20舍", "category": "宿舍", "capacity": 250 } },
    { "type": "Feature", "geometry": { "type": "Point", "coordinates": [114.3519881, 30.5297373] }, "properties": { "name": "信息学部21舍", "category": "宿舍", "capacity": 300 } },
    { "type": "Feature", "geometry": { "type": "Point", "coordinates": [114.3519411, 30.5299863] }, "properties": { "name": "信息学部22舍", "category": "宿舍", "capacity": 300 } },
    { "type": "Feature", "geometry": { "type": "Point", "coordinates": [114.3516931, 30.5304783] }, "properties": { "name": "信息学部23舍", "category": "宿舍", "capacity": 280 } },
    { "type": "Feature", "geometry": { "type": "Point", "coordinates": [114.3557025, 30.5287874] }, "properties": { "name": "信息学部1号教学楼", "category": "教学楼" ,"capacity": 1000 } },
    { "type": "Feature", "geometry": { "type": "Point", "coordinates": [114.3568036, 30.5287905] }, "properties": { "name": "信息学部2号教学楼", "category": "教学楼","capacity": 500 } },
    { "type": "Feature", "geometry": { "type": "Point", "coordinates": [114.3545333, 30.5287717] }, "properties": { "name": "信息学部3号教学楼", "category": "教学楼" ,"capacity": 500 } },
    { "type": "Feature", "geometry": { "type": "Point", "coordinates": [114.3568776, 30.5284215] }, "properties": { "name": "信息学部4号教学楼", "category": "教学楼" ,"capacity": 100 } },
    { "type": "Feature", "geometry": { "type": "Point", "coordinates": [114.3545945, 30.5282514] }, "properties": { "name": "信息学部5号教学楼", "category": "教学楼" ,"capacity": 100 } },
    { "type": "Feature", "geometry": { "type": "Point", "coordinates": [114.3546299, 30.5278808] }, "properties": { "name": "信息学部7号教学楼", "category": "教学楼" ,"capacity": 100 } },
    { "type": "Feature", "geometry": { "type": "Point", "coordinates": [114.3567147, 30.5278285] }, "properties": { "name": "教学实验大楼", "category": "教学楼" ,"capacity": 10 } },
    { "type": "Feature", "geometry": { "type": "Point", "coordinates": [114.3543762, 30.5285673] }, "properties": { "name": "附3教学楼", "category": "教学楼","capacity": 100  } },
    { "type": "Feature", "geometry": { "type": "Point", "coordinates": [114.3556186, 30.53143] }, "properties": { "name": "信息学部图书馆", "category": "教学楼" ,"capacity": 300 } },
    { "type": "Feature", "geometry": { "type": "Point", "coordinates": [114.3509692, 30.5296601] }, "properties": { "name": "国家网络安全学院大楼", "category": "教学楼" ,"capacity": 50 } },
    { "type": "Feature", "geometry": { "type": "Point", "coordinates": [114.3515433, 30.5294418] }, "properties": { "name": "信息学部西区A2教学楼", "category": "教学楼" ,"capacity": 50 } },
    { "type": "Feature", "geometry": { "type": "Point", "coordinates": [114.3515466, 30.5300296] }, "properties": { "name": "信息学部西区B4教学楼", "category": "教学楼" ,"capacity": 50 } },
    { "type": "Feature", "geometry": { "type": "Point", "coordinates": [114.35478, 30.5293623] }, "properties": { "name": "测绘遥感信息工程国家重点实验室", "category": "教学楼","capacity": 30  } },
    { "type": "Feature", "geometry": { "type": "Point", "coordinates": [114.350316, 30.5296649] }, "properties": { "name": "星湖综合实验大楼", "category": "教学楼","capacity": 30  } },
    { "type": "Feature", "geometry": { "type": "Point", "coordinates": [114.3565347, 30.5274645] }, "properties": { "name": "武汉大学先进技术研究院", "category": "教学楼","capacity": 10  } },
    { "type": "Feature", "geometry": { "type": "Point", "coordinates": [114.3519783, 30.5294944] }, "properties": { "name": "武汉大学宇航科学与技术研究院", "category": "教学楼" ,"capacity": 10 } },
    { "type": "Feature", "geometry": { "type": "Point", "coordinates": [114.3509255, 30.5296482] }, "properties": { "name": "武汉大学电子信息学院", "category": "教学楼" ,"capacity": 10 } },
    { "type": "Feature", "geometry": { "type": "Point", "coordinates": [114.3569802, 30.5316601] }, "properties": { "name": "地球空间环境与大地测量研究室", "category": "教学楼","capacity": 10  } },
    { "type": "Feature", "geometry": { "type": "Point", "coordinates": [114.3569842, 30.5310665] }, "properties": { "name": "测量仪器陈列馆", "category": "教学楼" ,"capacity": 10 } },
    { "type": "Feature", "geometry": { "type": "Point", "coordinates": [114.3537498, 30.5307371] }, "properties": { "name": "信息学部一食堂、二食堂", "category": "食堂", "capacity": 1500 } },
    { "type": "Feature", "geometry": { "type": "Point", "coordinates": [114.3530159, 30.5295697] }, "properties": { "name": "信息学部三食堂、四食堂", "category": "食堂", "capacity": 1200 } },
    { "type": "Feature", "geometry": { "type": "Point", "coordinates": [114.3530741, 30.529347] }, "properties": { "name": "信息学部清真食堂", "category": "食堂", "capacity": 300 } },
    { "type": "Feature", "geometry": { "type": "Point", "coordinates": [114.3549851, 30.5328152] }, "properties": { "name": "星园食堂", "category": "食堂", "capacity": 800 } },
    { "type": "Feature", "geometry": { "type": "Point", "coordinates": [114.3526407, 30.5326514] }, "properties": { "name": "五洲餐厅", "category": "食堂", "capacity": 500 } },
    { "type": "Feature", "geometry": { "type": "Point", "coordinates": [114.355786, 30.5270167] }, "properties": { "name": "武汉大学南门", "category": "校门" } },
    { "type": "Feature", "geometry": { "type": "Point", "coordinates": [114.3575988, 30.5334879] }, "properties": { "name": "珞南二门（明贤门）", "category": "校门" } },
    { "type": "Feature", "geometry": { "type": "Point", "coordinates": [114.3597467, 30.5326702] }, "properties": { "name": "珞南四门（广贤门）", "category": "校门" } },
    { "type": "Feature", "geometry": { "type": "Point", "coordinates": [114.3518491, 30.5350037] }, "properties": { "name": "武汉大学珞珈门", "category": "校门" } },
    { "type": "Feature", "geometry": { "type": "Point", "coordinates": [114.3550546, 30.5343534] }, "properties": { "name": "武汉大学科技门", "category": "校门" } },
    { "type": "Feature", "geometry": { "type": "Point", "coordinates": [114.3568444, 30.529342] }, "properties": { "name": "大学生活动中心", "category": "教学楼" ,"capacity": 100 } },
    { "type": "Feature", "geometry": { "type": "Point", "coordinates": [114.3512305, 30.5305128] }, "properties": { "name": "星湖体育馆", "category": "教学楼","capacity": 100  } },
    { "type": "Feature", "geometry": { "type": "Point", "coordinates": [114.3568717, 30.530029] }, "properties": { "name": "竹园体育馆", "category": "教学楼","capacity": 100  } }
  ]
}