{
  "type": "FeatureCollection",
  "features": [
    {
      "type": "Feature",
      "properties": {
        "GM_LAYER": "amenity - university",
        "GM_TYPE": "Misc. Manmade Structure",
        "ELEVATION": 0,
        "visible": null,
        "version": 0,
        "changeset": 82499298,
        "timestamp": "2020-03-23T02:41:47Z",
        "user": "sun-jiao",
        "uid": 4871040,
        "covered": null,
        "leisure": null,
        "name": "武汉大学信息学部",
        "sport": null,
        "id": 7728030.0,
        "building": null,
        "building_l": 0,
        "height": null,
        "shop": null,
        "landuse": null,
        "addr_city": null,
        "addr_house": null,
        "addr_postc": 0,
        "addr_stree": null,
        "name_en": "Faculty of Information Sciences, Wuhan University",
        "website": null,
        "amenity": "university",
        "addr_distr": null,
        "addr_hous1": null,
        "addr_provi": null,
        "int_name": null,
        "natural": null,
        "descriptio": null,
        "cuisine": null,
        "fast_food": null,
        "level": 0,
        "opening_h9": null,
        "designatio": null,
        "layer": 0,
        "area": null,
        "location": null,
        "public_tra": null,
        "railway": null,
        "subway": null,
        "station": null,
        "surface": null,
        "name_zh": "武汉大学信息学部",
        "admin_leve": 0,
        "boundary": null,
        "water": null,
        "place": "neighbourhood",
        "building_p": null,
        "min_height": 0,
        "min": 0,
        "name_zh_H1": null,
        "name_zh_Ha": null,
        "operator": null,
        "operator_t": null,
        "short_name": null,
        "short_nam1": null,
        "short_nam2": null,
        "wikidata": "Q11124550",
        "wikipedia": "zh:武汉大学信息科学学部",
        "garden_typ": null,
        "access": null,
        "note": null,
        "female": null,
        "toilets_di": null,
        "male": null,
        "wheelchair": null,
        "alt_name": "竹园",
        "old_name": "武汉测绘科技大学",
        "PERIMETER": null,
        "ENCLOSED_A": null
      },
      "geometry": {
        "type": "MultiPolygon",
        "coordinates": [
          [
            [
              [
                114.3609866586929,
                30.534688114577257
              ],
              [
                114.3609142339328,
                30.53471072254468
              ],
              [
                114.36118463644388,
                30.535415019877863
              ],
              [
                114.36132554315587,
                30.535438844742853
              ],
              [
                114.36245624881417,
                30.53564219753188
              ],
              [
                114.36247248246794,
                30.535478268532767
              ],
              [
                114.3625289267156,
                30.535323756222937
              ],
              [
                114.36254552421966,
                30.534674575581665
              ],
              [
                114.36257703776674,
                30.53467634361008
              ],
              [
                114.36300955709112,
                30.534686353563906
              ],
              [
                114.36335425961177,
                30.534697988526894
              ],
              [
                114.36363723064589,
                30.53472824866947
              ],
              [
                114.36363202259396,
                30.53513286932981
              ],
              [
                114.36367225119717,
                30.53513334206993
              ],
              [
                114.36367220031204,
                30.535331562557914
              ],
              [
                114.363430629229,
                30.535335102834924
              ],
              [
                114.36318884046446,
                30.535639017657413
              ],
              [
                114.3631617146435,
                30.5360363290501
              ],
              [
                114.36351845031476,
                30.5362851904538
              ],
              [
                114.36352102208751,
                30.53644921779209
              ],
              [
                114.36375189041604,
                30.536445611693555
              ],
              [
                114.36374099995719,
                30.536674287905104
              ],
              [
                114.36337322579271,
                30.536695778449857
              ],
              [
                114.36302132713001,
                30.5370453495026
              ],
              [
                114.36356851309586,
                30.537491424330412
              ],
              [
                114.3629400280813,
                30.538082343469434
              ],
              [
                114.36379573595481,
                30.538622092354508
              ],
              [
                114.36358567940238,
                30.53886171932706
              ],
              [
                114.36377760057819,
                30.539000748886014
              ],
              [
                114.36384635121203,
                30.539002433473307
              ],
              [
                114.36411946946158,
                30.538648589190363
              ],
              [
                114.3641629948038,
                30.5386614567133
              ],
              [
                114.36529072843416,
                30.538609532901162
              ],
              [
                114.36580084014811,
                30.538344374939626
              ],
              [
                114.36592013751951,
                30.538283329421798
              ],
              [
                114.36655102409823,
                30.537972248732373
              ],
              [
                114.36689601298743,
                30.537853703421995
              ],
              [
                114.36711398906357,
                30.53779063277662
              ],
              [
                114.3676175751327,
                30.537673590671712
              ],
              [
                114.36907710046447,
                30.53716704103965
              ],
              [
                114.36931243276568,
                30.53708479425076
              ],
              [
                114.36940425411701,
                30.537039882543247
              ],
              [
                114.36943353026122,
                30.53701914467341
              ],
              [
                114.36932760291964,
                30.536787350484275
              ],
              [
                114.3693186357256,
                30.53672395498471
              ],
              [
                114.3693222779695,
                30.536175800393494
              ],
              [
                114.36942576979426,
                30.535813643178944
              ],
              [
                114.36944652425115,
                30.535797815796563
              ],
              [
                114.36946557434302,
                30.534188228358285
              ],
              [
                114.37000138769315,
                30.534202711870474
              ],
              [
                114.36993467429701,
                30.533463347526187
              ],
              [
                114.36971289987115,
                30.53289503967613
              ],
              [
                114.3696752709355,
                30.53282248716026
              ],
              [
                114.36955100237988,
                30.532544229459834
              ],
              [
                114.36961826149259,
                30.532514132720028
              ],
              [
                114.36946526574923,
                30.532186198324364
              ],
              [
                114.36897807989628,
                30.531285489741837
              ],
              [
                114.3688559505414,
                30.531118059000733
              ],
              [
                114.36874846522664,
                30.531089323867334
              ],
              [
                114.36863009846984,
                30.531163296633128
              ],
              [
                114.36842064723098,
                30.53095074664678
              ],
              [
                114.36829169072792,
                30.530992379739676
              ],
              [
                114.36787252338448,
                30.531061668439236
              ],
              [
                114.3678187748022,
                30.530994644583927
              ],
              [
                114.36772520277391,
                30.53102191585694
              ],
              [
                114.36755230706686,
                30.531044836975827
              ],
              [
                114.36749095421125,
                30.531292634140776
              ],
              [
                114.3669991439199,
                30.531534847150745
              ],
              [
                114.36655456156026,
                30.531605877853877
              ],
              [
                114.36592454292305,
                30.531595131234916
              ],
              [
                114.3659234927408,
                30.531671338967676
              ],
              [
                114.36578758928715,
                30.531729249327267
              ],
              [
                114.36578479561493,
                30.532324418847224
              ],
              [
                114.36400770834065,
                30.53233039954737
              ],
              [
                114.3639253790833,
                30.532276563806068
              ],
              [
                114.36387439401616,
                30.532344865485854
              ],
              [
                114.36387285894077,
                30.53239556559563
              ],
              [
                114.36384535127759,
                30.533252757564945
              ],
              [
                114.36156418317931,
                30.53313530515497
              ],
              [
                114.36156755596778,
                30.532886595868334
              ],
              [
                114.36147703563435,
                30.532885025423408
              ],
              [
                114.36105085644274,
                30.533034456827334
              ],
              [
                114.3611566276169,
                30.533383806447564
              ],
              [
                114.36095535471142,
                30.53344945940783
              ],
              [
                114.36108921900093,
                30.533803906442326
              ],
              [
                114.3609684811367,
                30.53383539435926
              ],
              [
                114.36104616510792,
                30.534009240864563
              ],
              [
                114.3608207956116,
                30.53407240564798
              ],
              [
                114.36102428835689,
                30.53451975095849
              ],
              [
                114.36094114657772,
                30.53456309054514
              ],
              [
                114.3609866586929,
                30.534688114577257
              ]
            ]
          ]
        ]
      }
    }
  ]
}